

 

 



Airports

Navaids

Airspace Fixes

Aviation Fuel

Hotels

AIRBOSS

iPhone App

My AirNav







Airports

Navaids

Airspace Fixes

Aviation Fuel

Hotels

AIRBOSS

iPhone App

My AirNav



 603 users online
  KMCD Mackinac Island AirportMackinac Island, Michigan, USA 
GOING TO MACKINAC ISLAND?


 



Reserve a Hotel Room







Reserve a Hotel Room

FAA INFORMATION EFFECTIVE 07 NOVEMBER 2019
Location
FAA Identifier: MCD
Lat/Long: 45-51-53.9400N 084-38-13.5400W45-51.899000N 084-38.225667W45.8649833,-84.6370944(estimated)
Elevation: 741 ft. / 225.9 m (surveyed)
Variation: 07W (2000)
From city: 1 mile NW of MACKINAC ISLAND, MI
Time zone: UTC -5 (UTC -4 during Daylight Saving Time)
Zip code: 49757

Airport Operations

Airport use: Open to the public
Activation date: 04/1940
Control tower: no
ARTCC: MINNEAPOLIS CENTER
FSS: GREEN BAY FLIGHT SERVICE STATION
NOTAMs facility: MCD (NOTAM-D service available)
Attendance: 0800-1700
Pattern altitude: 1900 ft. MSL
Wind indicator: lighted
Segmented circle: yes
Lights: ACTVT MIRL RY 08/26 & PAPI RYS 08 & 26 & REIL RYS 08 & 26 - 122.8.
Beacon: white-green (lighted land airport)Operates sunset to sunrise.
Landing fee: yes

Airport Communications

CTAF/UNICOM: 122.7
WX AWOS-3: 118.275 (906-847-3778)
WX AWOS-3 at SLH (14 nm S): 118.175 (231-627-4671)
WX ASOS at PLN (19 nm S): 119.025 (231-539-7700)


APCH/DEP SVC PRVDD BY MINNEAPOLIS ARTCC ON FREQS 134.6/354.05 (PELLSTON RCAG).

Nearby radio navigation aids

VOR radial/distance  VOR name  FreqFAA Identifier: MCDLat/Long: 45-51-53.9400N 084-38-13.5400W45-51.899000N 084-38.225667W45.8649833,-84.6370944(estimated)Elevation: 741 ft. / 225.9 m (surveyed)Variation: 07W (2000)From city: 1 mile NW of MACKINAC ISLAND, MITime zone: UTC -5 (UTC -4 during Daylight Saving Time)Zip code: 49757Airport use: Open to the publicActivation date: 04/1940Control tower: noARTCC: MINNEAPOLIS CENTERFSS: GREEN BAY FLIGHT SERVICE STATIONNOTAMs facility: MCD (NOTAM-D service available)Attendance: 0800-1700Pattern altitude: 1900 ft. MSLWind indicator: lightedSegmented circle: yesLights: ACTVT MIRL RY 08/26 & PAPI RYS 08 & 26 & REIL RYS 08 & 26 - 122.8.Beacon: white-green (lighted land airport)Operates sunset to sunrise.Landing fee: yesCTAF/UNICOM: 122.7WX AWOS-3: 118.275 (906-847-3778)WX AWOS-3 at SLH (14 nm S): 118.175 (231-627-4671)WX ASOS at PLN (19 nm S): 119.025 (231-539-7700)PLNr011/14.1PELLSTON VORTAC111.8006WSSMr206/35.5SAULT STE MARIE VOR/DME112.2004WParking: tiedownsAirframe service: NONEPowerplant service: NONEBottled oxygen: NONEBulk oxygen: NONEDimensions: 3501 x 75 ft. / 1067 x 23 mSurface: asphalt/porous friction courses, in good conditionWeight bearing capacity: Single wheel: 13.0Single wheel: 13.0Runway edge lights: medium intensityRUNWAY 8  RUNWAY 26Latitude: 45-51.825667N45-51.972333NLongitude: 084-38.624333W084-37.827167WElevation: 728.7 ft.741.0 ft.Traffic pattern: leftleftRunway heading: 082 magnetic, 075 true262 magnetic, 255 trueMarkings: nonprecision, in good conditionnonprecision, in good conditionVisual slope indicator: 4-light PAPI on left (3.50 degrees glide path)RY 8 PAPI UNUSBL BYD 5 DEG LEFT OF CNTRLN.4-light PAPI on left (3.80 degrees glide path)RY 26 PAPI UNUSBL BYD 5 DEG LEFT OF CNTRLN.Runway end identifier lights: yesyesTouchdown point: yes, no lightsyes, no lightsObstructions: 45 ft. trees, 821 ft. from runway, 350 ft. right of centerline, 14:1 slope to clear+4 FT FENCE 0 DSTC 210 FT R/L.75 ft. trees, 908 ft. from runway, 300 ft. left of centerline, 9:1 slope to clearOwnership: Publicly-ownedOwner: MACKINAC ISLAND STATE PARK COMM.BOX 370MACKINAC ISLAND, MI 49757Phone 906-847-3231Manager: MYRON JOHNSONPO BOX 370MACKINAC ISLAND, MI 49757Phone 906-847-3231ASST MGR - JUSTIN WRIGHT - 906-847-3231Aircraft operations: avg 30/day *68% transient general aviation32% air taxi1% local general aviation* for 12-month period ending 31 December 2018- BIRDS ON & INVOF ARPT. FLOCKS OF SEAGULLS INVOF LANDFILL, 0.3 MI NE.- NOISE ABATEMENT PROCEDURES: TRAFFIC PATTERN ALT 1900 FT MSL; CLIMB TO 1900 FT MSL BEFORE TURNING; AVOID FLIGHT OVER SHORE & TOWN; NO TOUCH & GO LANDINGS.- OBSTRUCTION LIGHTS ARE IN THE APPROACH TO RUNWAY 26.- PILOTS ARE ENCOURAGED TO USE PITOT COVERS WHILE PARKED AND TO CHECK TUBES PRIOR TO DEPARTURE DUE TO MUD DAUBERS- FOR CD CTC MINNEAPOLIS ARTCC AT 651-463-5588.RNAV (GPS) RWY 08  download (207KB)RNAV (GPS) RWY 26  download (234KB)VOR/DME-A  download (176KB)NOTE: Special Alternate Minimums apply  download (39KB)NOTE: Special Take-Off Minimums/Departure Procedures apply  download (122KB) 


Loc | Ops | Rwys | IFR | FBO | Links
Com | Nav | Svcs | Stats | Notes



 

Road maps at:
MapQuest
Bing
Google

 

Aerial photo


WARNING: Photo may not be current or correct

looking southwest

Do you have a better or more recent aerial photo of Mackinac Island Airport that you would like to share?  If so, please send us your photo.
 



Sectional chart


 



Airport distance calculator


Flying to Mackinac Island Airport?
Find the distance to fly.
From 
to KMCD





Sunrise and sunset

Times for 23-Nov-2019

 Local(UTC-5) Zulu(UTC)
Morning civil twilight07:1712:17
Sunrise07:5112:51
Sunset16:5921:59
Evening civil twilight17:3322:33





Current date and time


Zulu (UTC)  23-Nov-2019 07:07:49
Local (UTC-5)  23-Nov-2019 02:07:49




    

METAR


KMCD 230656Z AUTO 21008KT 10SM OVC021 01/M01 A2985 RMK AO2 T00101011

KSLH 14nm S 230655Z AUTO 21008KT 10SM CLR M02/M03 A2986 RMK AO2 T10211035

KPLN 19nm S 230054Z AUTO 21007KT 10SM OVC026 M01/M05 A3002 RMK AO2 SLP175 T10061050





TAF


KPLN 19nm S 230540Z 2306/2406 22005KT P6SM BKN025 FM230800 VRB03KT P6SM SKC FM231400 24012G21KT P6SM SCT250 FM240200 VRB03KT P6SM SCT250 





NOTAMs




Click for the latest NOTAMs


NOTAMs are issued by the DoD/FAA and will open in a separate window not controlled by AirNav.

Loc | Ops | Rwys | IFR | FBO | Links
Com | Nav | Svcs | Stats | Notes



WARNING: Photo may not be current or correct

looking southwest

Do you have a better or more recent aerial photo of Mackinac Island Airport that you would like to share?  If so, please send us your photo.
 


 


Flying to Mackinac Island Airport?
Find the distance to fly.
From 
to KMCD



Times for 23-Nov-2019

 Local(UTC-5) Zulu(UTC)
Morning civil twilight07:1712:17
Sunrise07:5112:51
Sunset16:5921:59
Evening civil twilight17:3322:33

Morning civil twilight07:1712:17Sunrise07:5112:51Sunset16:5921:59Evening civil twilight17:3322:33

Zulu (UTC)  23-Nov-2019 07:07:49
Local (UTC-5)  23-Nov-2019 02:07:49

23-Nov-2019 07:07:4923-Nov-2019 02:07:49

KMCD 230656Z AUTO 21008KT 10SM OVC021 01/M01 A2985 RMK AO2 T00101011

KSLH 14nm S 230655Z AUTO 21008KT 10SM CLR M02/M03 A2986 RMK AO2 T10211035

KPLN 19nm S 230054Z AUTO 21007KT 10SM OVC026 M01/M05 A3002 RMK AO2 SLP175 T10061050


KMCD 230656Z AUTO 21008KT 10SM OVC021 01/M01 A2985 RMK AO2 T00101011
KSLH 14nm S 230655Z AUTO 21008KT 10SM CLR M02/M03 A2986 RMK AO2 T10211035
KPLN 19nm S 230054Z AUTO 21007KT 10SM OVC026 M01/M05 A3002 RMK AO2 SLP175 T10061050


KPLN 19nm S 230540Z 2306/2406 22005KT P6SM BKN025 FM230800 VRB03KT P6SM SKC FM231400 24012G21KT P6SM SCT250 FM240200 VRB03KT P6SM SCT250 


KPLN 19nm S 230540Z 2306/2406 22005KT P6SM BKN025 FM230800 VRB03KT P6SM SKC FM231400 24012G21KT P6SM SCT250 FM240200 VRB03KT P6SM SCT250 




Click for the latest NOTAMs


NOTAMs are issued by the DoD/FAA and will open in a separate window not controlled by AirNav.Click for the latest NOTAMs    Mackinac Island Airport906-847-3231
no information available
If you are affiliated with Mackinac Island Airport and would like to show here your services, contact info, web link, logo, and more, click here

no fuelno fuel 
 
 4 read write

  If your business provides an interesting product or service to pilots, flight crews, aircraft, or users of the Mackinac Island Airport, you should consider listing it here.  To start the listing process, click on the button below 

Landing and Overnight feesPage from the Michigan Airport Directory (PDF)
Copyright © AirNav, LLC. All rights reserved.

Privacy Policy 
Contact